ONEWEB-0156             
1 48052U 21025L   24249.62809354  .00000313  00000+0  82312-3 0  9992
2 48052  87.8855  89.4724 0001669  82.9152 277.2167 13.13470672168310
ONEWEB-0161             
1 48053U 21025M   24249.60109731 -.00000557  00000+0 -15594-2 0  9992
2 48053  87.8860  89.4868 0001818  88.5999 271.5338 13.13469162168233
ONEWEB-0158             
1 48054U 21025N   24249.63919760  .00000119  00000+0  29198-3 0  9995
2 48054  87.8856  89.4680 0001578  80.0596 280.0711 13.13467798168361
ONEWEB-0157             
1 48055U 21025P   24249.12977080 -.00000311  00000+0 -88722-3 0  9993
2 48055  87.8855  89.5837 0001852  82.6863 277.4476 13.13470512168238
ONEWEB-0162             
1 48056U 21025Q   24249.62651166  .00000263  00000+0  68478-3 0  9993
2 48056  87.8852  89.4790 0001685  82.1586 277.9735 13.13468138168250
ONEWEB-0155             
1 48057U 21025R   24249.11389801 -.00000161  00000+0 -47715-3 0  9992
2 48057  87.8855  89.5929 0001799  91.8658 268.2677 13.13461242168349
ONEWEB-0149             
1 48058U 21025S   24249.05834671 -.00000224  00000+0 -64907-3 0  9998
2 48058  87.8855  89.6003 0001747  77.2355 282.8969 13.13466886168142
ONEWEB-0148             
1 48059U 21025T   24249.63286784  .00000309  00000+0  81131-3 0  9999
2 48059  87.8859  89.4986 0002146  71.3461 288.7901 13.13470521168346
ONEWEB-0160             
1 48060U 21025U   24249.11548311 -.00000129  00000+0 -38901-3 0  9990
2 48060  87.8860  89.5978 0000736  74.1840 285.9370 13.13469488168223
ONEWEB-0163             
1 48061U 21025V   24249.63445478  .00000316  00000+0  82957-3 0  9994
2 48061  87.8855  89.4846 0001957  86.1521 273.9831 13.13469479168427
ONEWEB-0159             
1 48062U 21025W   24249.09009987  .00000361  00000+0  95371-3 0  9990
2 48062  87.8855  89.5760 0001877  82.2506 277.8836 13.13470565168263
ONEWEB-0164             
1 48063U 21025X   24249.60586494 -.00000056  00000+0 -18940-3 0  9991
2 48063  87.8856  89.4831 0001620  86.5700 273.5614 13.13471458168328
ONEWEB-0167             
1 48064U 21025Y   24249.63524382  .00000266  00000+0  69301-3 0  9991
2 48064  87.8856  89.4903 0001887  85.6031 274.5313 13.13466986168306
ONEWEB-0166             
1 48065U 21025Z   24249.58047462 -.00000169  00000+0 -49727-3 0  9999
2 48065  87.8852  89.4813 0001767  78.2899 281.8429 13.13471047168370
ONEWEB-0151             
1 48066U 21025AA  24249.58206055 -.00000196  00000+0 -57300-3 0  9991
2 48066  87.8855  89.4965 0001630  89.2183 270.9133 13.13471518168317
ONEWEB-0170             
1 48067U 21025AB  24249.05675847 -.00000261  00000+0 -74986-3 0  9995
2 48067  87.8856  89.6044 0001251 103.9826 256.1442 13.13470453168200
ONEWEB-0168             
1 48068U 21025AC  24249.11865704 -.00000211  00000+0 -61216-3 0  9993
2 48068  87.8860  89.5640 0001732  84.8163 275.3164 13.13469875168224
ONEWEB-0173             
1 48069U 21025AD  24249.11072183 -.00000074  00000+0 -23727-3 0  9997
2 48069  87.8859  89.5755 0002014  94.9505 265.1854 13.13469306168464
ONEWEB-0171             
1 48070U 21025AE  24249.60428350 -.00000297  00000+0 -84742-3 0  9995
2 48070  87.8858  89.5129 0001695  89.0586 271.0737 13.13470547168340
ONEWEB-0172             
1 48071U 21025AF  24249.05040463 -.00000289  00000+0 -82515-3 0  9997
2 48071  87.8859  89.5899 0001748  90.4689 269.6640 13.13470811169166
ONEWEB-0174             
1 48072U 21025AG  24249.56620491  .00000043  00000+0  83802-4 0  9996
2 48072  87.8858  89.5011 0001734  80.3279 279.8046 13.13469203168558
ONEWEB-0175             
1 48073U 21025AH  24249.06151976 -.00000196  00000+0 -57237-3 0  9992
2 48073  87.8851  89.5856 0001518  97.5968 262.5334 13.13471068168140
ONEWEB-0177             
1 48074U 21025AJ  24249.07421765  .00000118  00000+0  28785-3 0  9998
2 48074  87.8853  89.5923 0002094  85.8497 274.2871 13.13471941168332
ONEWEB-0178             
1 48075U 21025AK  24249.09182556  .00000295  00000+0  77150-3 0  9999
2 48075  87.8862  89.6122 0001849  85.7801 274.3539 13.13469400168384
ONEWEB-0108             
1 48076U 21025AL  24249.12817492 -.00000278  00000+0 -79711-3 0  9996
2 48076  87.8853  89.5784 0001577  76.7846 283.3458 13.13470065168317
ONEWEB-0169             
1 48077U 21025AM  24249.23605133  .00004414  00000+0  12041-1 0  9991
2 48077  87.8851  89.5687 0001929  76.0064 284.1280 13.13505491166989
ONEWEB-0176             
1 48210U 21031A   24248.98086185 -.00000475  00000+0 -13146-2 0  9991
2 48210  87.8933  59.0088 0001681  92.0653 268.0670 13.14500703162895
ONEWEB-0184             
1 48211U 21031B   24249.86733089  .00000031  00000+0  50318-4 0  9992
2 48211  87.8934  58.8124 0001937 122.5495 237.5822 13.14499635162983
ONEWEB-0179             
1 48212U 21031C   24249.83720228  .00000209  00000+0  53006-3 0  9994
2 48212  87.8937  58.8247 0001826  90.3764 269.7575 13.14500946163027
ONEWEB-0180             
1 48213U 21031D   24249.87051094 -.00000048  00000+0 -16301-3 0  9997
2 48213  87.8934  58.8136 0001920  90.9552 269.1798 13.14501152162916
ONEWEB-0218             
1 48214U 21031E   24248.97929245 -.00000158  00000+0 -46178-3 0  9997
2 48214  87.8931  58.9933 0002284 119.2431 240.8927 13.14501406162951
ONEWEB-0209             
1 48215U 21031F   24249.04431048 -.00000174  00000+0 -50507-3 0  9995
2 48215  87.8932  59.0161 0001935  90.0681 270.0671 13.14500988162969
ONEWEB-0198             
1 48216U 21031G   24249.86575572 -.00000006  00000+0 -50038-4 0  9991
2 48216  87.8937  58.8565 0001999 100.6559 259.4796 13.14501395163167
ONEWEB-0189             
1 48217U 21031H   24249.04112841 -.00000236  00000+0 -66995-3 0  9991
2 48217  87.8933  58.9959 0002120 100.5863 259.5505 13.14499467162812
ONEWEB-0196             
1 48218U 21031J   24249.01892603  .00000128  00000+0  30991-3 0  9995
2 48218  87.8937  59.0059 0001706  93.9213 266.2112 13.14503503162819
ONEWEB-0183             
1 48219U 21031K   24249.83085946  .00000195  00000+0  49085-3 0  9998
2 48219  87.8934  58.8594 0001826  85.6539 274.4799 13.14501904163018
ONEWEB-0185             
1 48220U 21031L   24249.01971556 -.00000299  00000+0 -84027-3 0  9993
2 48220  87.8935  58.9931 0001868  87.7409 272.3934 13.14500715162838
ONEWEB-0187             
1 48221U 21031M   24248.98960426  .00000019  00000+0  17322-4 0  9996
2 48221  87.8935  59.0327 0001854  88.4597 271.6745 13.14500968162844
ONEWEB-0192             
1 48222U 21031N   24248.96977389 -.00000222  00000+0 -63280-3 0  9992
2 48222  87.8936  59.0341 0001763  95.4875 264.6455 13.14500812162756
ONEWEB-0219             
1 48223U 21031P   24249.86257724  .00000171  00000+0  42649-3 0  9994
2 48223  87.8936  58.8295 0001902  90.0983 270.0365 13.14501813163088
ONEWEB-0202             
1 48224U 21031Q   24249.61519570  .00000280  00000+0  72054-3 0  9992
2 48224  87.8935  58.8974 0002321 109.3396 250.7985 13.14501068163029
ONEWEB-0204             
1 48225U 21031R   24249.04033530 -.00000257  00000+0 -72656-3 0  9991
2 48225  87.8933  59.0242 0001693  78.5472 281.5847 13.14499430162849
ONEWEB-0205             
1 48226U 21031S   24249.47245918  .00000254  00000+0  65043-3 0  9991
2 48226  87.8936  58.9091 0001905  91.5577 268.5771 13.14503532162918
ONEWEB-0206             
1 48227U 21031T   24248.98881895  .00000046  00000+0  89965-4 0  9996
2 48227  87.8930  58.9932 0001914  87.4931 272.6417 13.14500938162803
ONEWEB-0182             
1 48228U 21031U   24249.44073974 -.00000007  00000+0 -52809-4 0  9996
2 48228  87.8936  58.9335 0001668  85.0562 275.0758 13.14504874163075
ONEWEB-0186             
1 48229U 21031V   24249.83243721  .00000112  00000+0  26772-3 0  9993
2 48229  87.8936  58.8187 0001709  91.3381 268.7945 13.14505644163089
ONEWEB-0181             
1 48230U 21031W   24248.97293241 -.00000144  00000+0 -42325-3 0  9990
2 48230  87.8935  59.0603 0001813  96.5382 263.5954 13.14504331162815
ONEWEB-0188             
1 48231U 21031X   24249.84831242  .00000159  00000+0  39366-3 0  9992
2 48231  87.8936  58.8805 0001765  90.0006 270.1326 13.14501387162833
ONEWEB-0220             
1 48232U 21031Y   24248.97451825 -.00000166  00000+0 -48131-3 0  9991
2 48232  87.8927  59.0146 0002078  89.3061 270.8307 13.14504308162983
ONEWEB-0165             
1 48233U 21031Z   24249.00307048  .00000217  00000+0  55188-3 0  9999
2 48233  87.8935  59.0309 0001868  94.3051 265.8293 13.14503616162940
ONEWEB-0199             
1 48234U 21031AA  24248.98720863  .00000066  00000+0  14219-3 0  9992
2 48234  87.8933  59.0024 0001501  92.7137 267.4164 13.14502468162842
ONEWEB-0203             
1 48235U 21031AB  24248.97768348 -.00000117  00000+0 -35026-3 0  9990
2 48235  87.8933  59.0060 0001466 106.1444 253.9847 13.14504900162856
ONEWEB-0197             
1 48236U 21031AC  24249.02922784 -.00000513  00000+0 -14180-2 0  9991
2 48236  87.8935  59.0049 0001696  79.7513 280.3807 13.14500985162773
ONEWEB-0194             
1 48237U 21031AD  24249.00783807  .00000236  00000+0  60296-3 0  9991
2 48237  87.8936  59.0029 0001464  95.7122 264.4175 13.14499843162940
ONEWEB-0193             
1 48238U 21031AE  24249.86098228  .00000092  00000+0  21396-3 0  9990
2 48238  87.8937  58.8405 0001722  96.0423 264.0902 13.14499590163003
ONEWEB-0191             
1 48239U 21031AF  24249.03479106 -.00000196  00000+0 -56315-3 0  9994
2 48239  87.8932  58.9867 0001726  95.4098 264.7228 13.14502372162759
ONEWEB-0195             
1 48240U 21031AG  24249.46850888  .00000283  00000+0  72912-3 0  9999
2 48240  87.8933  58.8993 0002051  98.3641 261.7721 13.14500502162791
ONEWEB-0201             
1 48241U 21031AH  24249.83798341  .00000170  00000+0  42530-3 0  9994
2 48241  87.8935  58.8626 0001839  92.4178 267.7162 13.14504320163079
ONEWEB-0207             
1 48242U 21031AJ  24248.98007029 -.00000122  00000+0 -36414-3 0  9999
2 48242  87.8933  58.9986 0001828  85.0942 275.0396 13.14503696162876
